[{"OBJECT_NAME":"STARLINK-5484","OBJECT_ID":"2023-021A","EPOCH":"2026-03-09T19:21:48.546432","MEAN_MOTION":14.9832984,"ECCENTRICITY":0.0003305,"INCLINATION":70.0004,"RA_OF_ASC_NODE":204.2441,"ARG_OF_PERICENTER":268.9762,"MEAN_ANOMALY":91.1018,"EPHEMERIS_TYPE":0,"CLASSIFICATION_TYPE":"U","NORAD_CAT_ID":55628,"ELEMENT_SET_NO":999,"REV_AT_EPOCH":16831,"BSTAR":0.00021094722,"MEAN_MOTION_DOT":2.425e-5,"MEAN_MOTION_DDOT":0},{"OBJECT_NAME":"IRIDIUM 33 DEB","OBJECT_ID":"1997-051PF","EPOCH":"2026-03-08T20:08:48.628608","MEAN_MOTION":15.0410284,"ECCENTRICITY":0.00301759,"INCLINATION":86.2075,"RA_OF_ASC_NODE":10.7469,"ARG_OF_PERICENTER":217.121,"MEAN_ANOMALY":142.7938,"EPHEMERIS_TYPE":0,"CLASSIFICATION_TYPE":"U","NORAD_CAT_ID":35080,"ELEMENT_SET_NO":999,"REV_AT_EPOCH":70973,"BSTAR":0.01054144,"MEAN_MOTION_DOT":0.00150308,"MEAN_MOTION_DDOT":0}]
